NORAD_CAT_ID,OBJECT_NAME,OBJECT_TYPE,EPOCH,MEAN_MOTION,ECCENTRICITY,INCLINATION,RA_OF_ASC_NODE,ARG_OF_PERICENTER,MEAN_ANOMALY,BSTAR,MEAN_MOTION_DOT,MEAN_MOTION_DDOT,TLE_LINE0,TLE_LINE1,TLE_LINE2,SEMIMAJOR_AXIS,PERIOD,APOGEE,PERIGEE,DECAYED
51114.0,STARLINK-3375,PAYLOAD,2022-11-24 05:51:19,15.08838119,0.0003003,53.219,282.6332,36.1126,324.0068,1.697e-05,-1.9e-07,0.0,0 STARLINK-3375,1 51114U 22005L   22328.24397878 -.00000019  00000-0  16970-4 0  9994,2 51114  53.2190 282.6332 0003003  36.1126 324.0068 15.08838119 47508,6917.886,95.438,541.8290000000002,537.674,0.0
51114.0,STARLINK-3375,PAYLOAD,2022-11-25 04:06:43,15.08842547,0.0002831,53.2189,278.4706,38.0595,322.0597,-1.673e-07,-2.91e-06,0.0,0 STARLINK-3375,1 51114U 22005L   22329.17133821 -.00000291  00000-0 -16730-6 0  9992,2 51114  53.2189 278.4706 0002831  38.0595 322.0597 15.08842547 48756,6917.873000000001,95.437,541.696,537.779,0.0
51114.0,STARLINK-3375,PAYLOAD,2022-11-25 07:17:29,15.08843967,0.0002884,53.2183,277.875,35.5726,324.5458,-4.1508e-06,-3.55e-06,0.0,0 STARLINK-3375,1 51114U 22005L   22329.30381738 -.00000355  00000-0 -41508-5 0  9990,2 51114  53.2183 277.8750 0002884  35.5726 324.5458 15.08843967 47667,6917.868,95.437,541.7280000000002,537.738,0.0
51114.0,STARLINK-3375,PAYLOAD,2022-11-26 13:29:48,15.08851043,0.0002869,53.2181,272.2245,36.0523,324.0662,0.00012813,1.752e-05,0.0,0 STARLINK-3375,1 51114U 22005L   22330.56236815  .00001752  00000-0  12813-3 0  9990,2 51114  53.2181 272.2245 0002869  36.0523 324.0662 15.08851043 47854,6917.847,95.437,541.696,537.727,0.0
51114.0,STARLINK-3375,PAYLOAD,2022-11-26 21:26:44,15.08851382,0.0002888,53.2184,270.7375,36.628,323.491,0.00012156,1.647e-05,0.0,0 STARLINK-3375,1 51114U 22005L   22330.89356630  .00001647  00000-0  12156-3 0  9997,2 51114  53.2184 270.7375 0002888  36.6280 323.4910 15.08851382 47902,6917.846,95.437,541.7080000000002,537.7130000000002,0.0
51114.0,STARLINK-3375,PAYLOAD,2022-11-27 05:23:40,15.08837558,0.0003213,53.2188,269.254,34.5907,325.5294,4.130800000000001e-05,3.69e-06,0.0,0 STARLINK-3375,1 51114U 22005L   22331.22477798  .00000369  00000-0  41308-4 0  9996,2 51114  53.2188 269.2540 0003213  34.5907 325.5294 15.08837558 49065,6917.888000000001,95.438,541.976,537.53,0.0
51114.0,STARLINK-3375,PAYLOAD,2022-11-27 19:42:09,15.08831686,0.0002703,53.2171,266.5755,37.9483,322.1699,-4.7683e-05,-1.047e-05,0.0,0 STARLINK-3375,1 51114U 22005L   22331.82094286 -.00001047  00000-0 -47683-4 0  9997,2 51114  53.2171 266.5755 0002703  37.9483 322.1699 15.08831686 48049,6917.906,95.438,541.641,537.901,0.0
51114.0,STARLINK-3375,PAYLOAD,2022-11-28 02:03:42,15.08833306,0.0002927,53.2174,265.3869,36.4996,323.6195,-7.8724e-05,-1.541e-05,0.0,0 STARLINK-3375,1 51114U 22005L   22332.08590436 -.00001541  00000-0 -78724-4 0  9993,2 51114  53.2174 265.3869 0002927  36.4996 323.6195 15.08833306 49191,6917.901,95.438,541.7909999999998,537.741,0.0
51114.0,STARLINK-3375,PAYLOAD,2022-11-28 13:11:23,15.08840664,0.0002691,53.2183,263.303,39.2116,320.907,-2.9648e-05,-7.6e-06,0.0,0 STARLINK-3375,1 51114U 22005L   22332.54957871 -.00000760  00000-0 -29648-4 0  9997,2 51114  53.2183 263.3030 0002691  39.2116 320.9070 15.08840664 49267,6917.878000000002,95.438,541.605,537.882,0.0
51114.0,STARLINK-3375,PAYLOAD,2022-11-28 19:32:56,15.08841391,0.0002737,53.2177,262.1135,37.9369,322.1816,-5.4701e-06,-3.76e-06,0.0,0 STARLINK-3375,1 51114U 22005L   22332.81453717 -.00000376  00000-0 -54701-5 0  9999,2 51114  53.2177 262.1135 0002737  37.9369 322.1816 15.08841391 48190,6917.876,95.437,541.635,537.8480000000002,0.0
51114.0,STARLINK-3375,PAYLOAD,2022-11-29 05:05:15,15.08833545,0.0002839,53.2179,260.3299,37.8633,322.2558,-1.5705e-05,-5.38e-06,0.0,0 STARLINK-3375,1 51114U 22005L   22333.21198418 -.00000538  00000-0 -15705-4 0  9998,2 51114  53.2179 260.3299 0002839  37.8633 322.2558 15.08833545 49365,6917.9,95.438,541.729,537.8009999999998,0.0
51114.0,STARLINK-3375,PAYLOAD,2022-11-29 19:23:43,15.08832171,0.0002818,53.2182,257.654,36.3475,323.7709,0.00017196,2.449e-05,0.0,0 STARLINK-3375,1 51114U 22005L   22333.80814321  .00002449  00000-0  17196-3 0  9997,2 51114  53.2182 257.6540 0002818  36.3475 323.7709 15.08832171 48347,6917.904,95.438,541.719,537.82,0.0
51114.0,STARLINK-3375,PAYLOAD,2022-11-30 04:56:03,15.08828831,0.0002804,53.2182,255.8693,36.0957,324.0224,5.6091e-05,6.04e-06,0.0,0 STARLINK-3375,1 51114U 22005L   22334.20559118  .00000604  00000-0  56091-4 0  9991,2 51114  53.2182 255.8693 0002804  36.0957 324.0224 15.08828831 48404,6917.915,95.438,541.719,537.84,0.0
51114.0,STARLINK-3375,PAYLOAD,2022-11-30 19:14:30,15.08839907,0.0002811,53.2176,253.1933,33.9449,326.1722,0.0001384,1.915e-05,0.0,0 STARLINK-3375,1 51114U 22005L   22334.80174272  .00001915  00000-0  13840-3 0  9991,2 51114  53.2176 253.1933 0002811  33.9449 326.1722 15.08839907 48496,6917.880999999999,95.438,541.69,537.8009999999998,0.0
51114.0,STARLINK-3375,PAYLOAD,2022-12-01 03:11:26,15.08835187,0.0002852,53.2176,251.7066,33.3987,326.7185,8.6454e-05,1.088e-05,0.0,0 STARLINK-3375,1 51114U 22005L   22335.13294806  .00001088  00000-0  86454-4 0  9997,2 51114  53.2176 251.7066 0002852  33.3987 326.7185 15.08835187 49657,6917.895,95.438,541.7330000000002,537.7869999999998,0.0
51114.0,STARLINK-3375,PAYLOAD,2022-12-01 04:46:49,15.08835809,0.0002866,53.2176,251.4093,33.3078,326.8094,8.927200000000001e-05,1.132e-05,0.0,0 STARLINK-3375,1 51114U 22005L   22335.19918832  .00001132  00000-0  89272-4 0  9996,2 51114  53.2176 251.4093 0002866  33.3078 326.8094 15.08835809 48559,6917.893,95.438,541.741,537.776,0.0
51114.0,STARLINK-3375,PAYLOAD,2022-12-01 19:05:14,15.08870071,0.0002943,53.2178,248.7336,34.33,325.7882,0.00036596,5.546e-05,0.0,0 STARLINK-3375,1 51114U 22005L   22335.79531067  .00005546  00000-0  36596-3 0  9996,2 51114  53.2178 248.7336 0002943  34.3300 325.7882 15.08870071 49751,6917.788000000001,95.436,541.689,537.618,0.0
51114.0,STARLINK-3375,PAYLOAD,2022-12-02 01:26:49,15.08843546,0.0003483,53.218,247.5478,63.6387,296.4963,0.00013366,1.839e-05,0.0,0 STARLINK-3375,1 51114U 22005L   22336.06029059  .00001839  00000-0  13366-3 0  9991,2 51114  53.2180 247.5478 0003483  63.6387 296.4963 15.08843546 49793,6917.87,95.437,542.144,537.325,0.0
51114.0,STARLINK-3375,PAYLOAD,2022-12-02 10:59:08,15.08840741,0.000255,53.217,245.7598,11.2382,348.8667,3.4869e-05,2.67e-06,0.0,0 STARLINK-3375,1 51114U 22005L   22336.45773493  .00000267  00000-0  34869-4 0  9998,2 51114  53.2170 245.7598 0002550  11.2382 348.8667 15.08840741 48744,6917.878000000002,95.438,541.507,537.979,0.0
51114.0,STARLINK-3375,PAYLOAD,2022-12-03 10:49:55,15.08835575,0.0002911,53.2165,241.2989,30.2031,329.9128,8.1863e-06,-1.58e-06,0.0,0 STARLINK-3375,1 51114U 22005L   22337.45134212 -.00000158  00000-0  81863-5 0  9996,2 51114  53.2165 241.2989 0002911  30.2031 329.9128 15.08835575 48893,6917.894,95.438,541.773,537.745,0.0
51114.0,STARLINK-3375,PAYLOAD,2022-12-04 02:43:45,15.08859162,0.000306,53.2159,238.3247,26.582,333.5328,-0.00014974,-2.673e-05,0.0,0 STARLINK-3375,1 51114U 22005L   22338.11372403 -.00002673  00000-0 -14974-3 0  9998,2 51114  53.2159 238.3247 0003060  26.5820 333.5328 15.08859162 50108,6917.821999999999,95.436,541.804,537.57,0.0
51114.0,STARLINK-3375,PAYLOAD,2022-12-04 10:40:42,15.08834529,0.00029,53.2157,236.8384,27.8026,332.3119999999999,0.00019922,2.883e-05,0.0,0 STARLINK-3375,1 51114U 22005L   22338.44493471  .00002883  00000-0  19922-3 0  9992,2 51114  53.2157 236.8384 0002900  27.8026 332.3120 15.08834529 50157,6917.897,95.438,541.768,537.756,0.0
51114.0,STARLINK-3375,PAYLOAD,2022-12-05 02:34:34,15.08835943,0.0002969,53.2167,233.8645,30.0702,330.046,0.00012626,1.721e-05,0.0,0 STARLINK-3375,1 51114U 22005L   22339.10733830  .00001721  00000-0  12626-3 0  9996,2 51114  53.2167 233.8645 0002969  30.0702 330.0460 15.08835943 49147,6917.893,95.438,541.812,537.7040000000002,0.0
51114.0,STARLINK-3375,PAYLOAD,2022-12-05 20:03:48,15.08840138,0.000295,53.216,230.5942,30.4932,329.6231,0.00017252,2.458e-05,0.0,0 STARLINK-3375,1 51114U 22005L   22339.83597791  .00002458  00000-0  17252-3 0  9998,2 51114  53.2160 230.5942 0002950  30.4932 329.6231 15.08840138 49257,6917.88,95.438,541.786,537.7040000000002,0.0
51114.0,STARLINK-3375,PAYLOAD,2022-12-06 02:25:21,15.08837382,0.0002935,53.2171,229.4047,31.1316,328.985,1.6322e-07,-2.86e-06,0.0,0 STARLINK-3375,1 51114U 22005L   22340.10093937 -.00000286  00000-0  16322-6 0  9991,2 51114  53.2171 229.4047 0002935  31.1316 328.9850 15.08837382 50404,6917.888000000001,95.438,541.784,537.7230000000002,0.0
51114.0,STARLINK-3375,PAYLOAD,2022-12-06 10:22:17,15.08834893,0.0003101,53.2162,227.9181,30.6144,329.5029,-1.083e-05,-4.61e-06,0.0,0 STARLINK-3375,1 51114U 22005L   22340.43214391 -.00000461  00000-0 -10830-4 0  9998,2 51114  53.2162 227.9181 0003101  30.6144 329.5029 15.08834893 49345,6917.896,95.438,541.906,537.616,0.0
51114.0,STARLINK-3375,PAYLOAD,2022-12-06 19:54:36,15.08824801,0.0002718,53.2167,226.1331,34.2728,325.8439,-2.0542e-05,-6.15e-06,0.0,0 STARLINK-3375,1 51114U 22005L   22340.82959329 -.00000615  00000-0 -20542-4 0  9990,2 51114  53.2167 226.1331 0002718  34.2728 325.8439 15.08824801 49408,6917.927,95.439,541.672,537.9119999999998,0.0
51114.0,STARLINK-3375,PAYLOAD,2022-12-06 21:30:00,15.08824698,0.0002703,53.2167,225.8356,34.4197,325.697,-2.1461e-05,-6.3e-06,0.0,0 STARLINK-3375,1 51114U 22005L   22340.89583392 -.00000630  00000-0 -21461-4 0  9998,2 51114  53.2167 225.8356 0002703  34.4197 325.6970 15.08824698 50524,6917.927,95.439,541.6619999999998,537.922,0.0
51114.0,STARLINK-3375,PAYLOAD,2022-12-07 19:45:23,15.08837672,0.000296,53.2167,221.6738,30.4296,329.6868,8.3134e-05,1.035e-05,0.0,0 STARLINK-3375,1 51114U 22005L   22341.82319128  .00001035  00000-0  83134-4 0  9999,2 51114  53.2167 221.6738 0002960  30.4296 329.6868 15.08837672 49550,6917.888000000001,95.438,541.8,537.705,0.0
